{"type": "FeatureCollection", "features": [ {"type": "Feature", "properties": {"norad_id": 30766, "name": "FENGYUN 1C DEB", "group": "fengyun-1c-debris", "lat": 44.921988138052214, "lon": -31.534193069162388, "alt_km": 824.3731077999337, "timestamp": "2025-12-02T10:50:47.552799+00:00", "meta": {"OBJECT_NAME": "FENGYUN 1C DEB", "OBJECT_ID": "1999-025AUC", "EPOCH": "2025-11-29T06:02:29.152320", "MEAN_MOTION": 14.0947949, "ECCENTRICITY": 0.0083655, "INCLINATION": 98.6728, "RA_OF_ASC_NODE": 334.1388, "ARG_OF_PERICENTER": 112.2766, "MEAN_ANOMALY": 264.9384, "EPHEMERIS_TYPE": 0, "CLASSIFICATION_TYPE": "U", "NORAD_CAT_ID": 30766, "ELEMENT_SET_NO": 999, "REV_AT_EPOCH": 62607, "BSTAR": 0.00061885465, "MEAN_MOTION_DOT": 1.075e-05, "MEAN_MOTION_DDOT": 0}, "tle": {"line1": "1 30766U 99025AUC 25333.25172630  .00001075  00000+0  61885-3 0  9992", "line2": "2 30766  98.6728 334.1388 0083655 112.2766 264.9384 14.09479490626070"}}, "geometry": {"type": "Point", "coordinates": [-31.534193069162388, 44.921988138052214]}}, {"type": "Feature", "properties": {"norad_id": 30768, "name": "FENGYUN 1C DEB", "group": "fengyun-1c-debris", "lat": -30.403489381170907, "lon": 71.103735787262, "alt_km": 757.0177880945475, "timestamp": "2025-12-02T10:50:47.552809+00:00", "meta": {"OBJECT_NAME": "FENGYUN 1C DEB", "OBJECT_ID": "1999-025AUE", "EPOCH": "2025-12-02T04:29:22.600032", "MEAN_MOTION": 14.4761591, "ECCENTRICITY": 0.0026147, "INCLINATION": 98.6187, "RA_OF_ASC_NODE": 65.7281, "ARG_OF_PERICENTER": 131.6792, "MEAN_ANOMALY": 258.1732, "EPHEMERIS_TYPE": 0, "CLASSIFICATION_TYPE": "U", "NORAD_CAT_ID": 30768, "ELEMENT_SET_NO": 999, "REV_AT_EPOCH": 97718, "BSTAR": 0.0025511, "MEAN_MOTION_DOT": 9.404e-05, "MEAN_MOTION_DDOT": 0}, "tle": {"line1": "1 30768U 99025AUE 25336.18706713  .00009404  00000+0  25511-2 0  9993", "line2": "2 30768  98.6187  65.7281 0026147 131.6792 258.1732 14.47615910977181"}}, "geometry": {"type": "Point", "coordinates": [71.103735787262, -30.403489381170907]}}, {"type": "Feature", "properties": {"norad_id": 30770, "name": "FENGYUN 1C DEB", "group": "fengyun-1c-debris", "lat": -40.30062490235253, "lon": -9.777126861229164, "alt_km": 837.1053408074595, "timestamp": "2025-12-02T10:50:47.552819+00:00", "meta": {"OBJECT_NAME": "FENGYUN 1C DEB", "OBJECT_ID": "1999-025AUG", "EPOCH": "2025-12-01T23:28:22.179936", "MEAN_MOTION": 14.15663509, "ECCENTRICITY": 0.001306, "INCLINATION": 98.6547, "RA_OF_ASC_NODE": 342.3411, "ARG_OF_PERICENTER": 318.9083, "MEAN_ANOMALY": 106.4728, "EPHEMERIS_TYPE": 0, "CLASSIFICATION_TYPE": "U", "NORAD_CAT_ID": 30770, "ELEMENT_SET_NO": 999, "REV_AT_EPOCH": 96755, "BSTAR": 0.00034976, "MEAN_MOTION_DOT": 6.43e-06, "MEAN_MOTION_DDOT": 0}, "tle": {"line1": "1 30770U 99025AUG 25335.97803449  .00000643  00000+0  34976-3 0  9998", "line2": "2 30770  98.6547 342.3411 0013060 318.9083 106.4728 14.15663509967558"}}, "geometry": {"type": "Point", "coordinates": [-9.777126861229164, -40.30062490235253]}}, {"type": "Feature", "properties": {"norad_id": 30771, "name": "FENGYUN 1C DEB", "group": "fengyun-1c-debris", "lat": 80.9937393757918, "lon": -130.34622125131904, "alt_km": 749.7080834086, "timestamp": "2025-12-02T10:50:47.552831+00:00", "meta": {"OBJECT_NAME": "FENGYUN 1C DEB", "OBJECT_ID": "1999-025AUH", "EPOCH": "2025-12-01T21:07:23.251872", "MEAN_MOTION": 14.42856688, "ECCENTRICITY": 0.0024296, "INCLINATION": 98.9046, "RA_OF_ASC_NODE": 310.617, "ARG_OF_PERICENTER": 332.2667, "MEAN_ANOMALY": 27.7225, "EPHEMERIS_TYPE": 0, "CLASSIFICATION_TYPE": "U", "NORAD_CAT_ID": 30771, "ELEMENT_SET_NO": 999, "REV_AT_EPOCH": 96907, "BSTAR": 0.0030756, "MEAN_MOTION_DOT": 0.00010271, "MEAN_MOTION_DDOT": 0}, "tle": {"line1": "1 30771U 99025AUH 25335.88013023  .00010271  00000+0  30756-2 0  9999", "line2": "2 30771  98.9046 310.6170 0024296 332.2667  27.7225 14.42856688969074"}}, "geometry": {"type": "Point", "coordinates": [-130.34622125131904, 80.9937393757918]}}, {"type": "Feature", "properties": {"norad_id": 30802, "name": "FENGYUN 1C DEB", "group": "fengyun-1c-debris", "lat": -68.6542858880616, "lon": -140.41572421735947, "alt_km": 804.8294781031655, "timestamp": "2025-12-02T10:50:47.552841+00:00", "meta": {"OBJECT_NAME": "FENGYUN 1C DEB", "OBJECT_ID": "1999-025AUL", "EPOCH": "2025-12-01T19:11:31.710912", "MEAN_MOTION": 14.32287731, "ECCENTRICITY": 0.0018909, "INCLINATION": 98.8384, "RA_OF_ASC_NODE": 62.3818, "ARG_OF_PERICENTER": 75.8454, "MEAN_ANOMALY": 53.254, "EPHEMERIS_TYPE": 0, "CLASSIFICATION_TYPE": "U", "NORAD_CAT_ID": 30802, "ELEMENT_SET_NO": 999, "REV_AT_EPOCH": 97046, "BSTAR": 0.0017455, "MEAN_MOTION_DOT": 4.677e-05, "MEAN_MOTION_DDOT": 0}, "tle": {"line1": "1 30802U 99025AUL 25335.79967258  .00004677  00000+0  17455-2 0  9996", "line2": "2 30802  98.8384  62.3818 0018909  75.8454  53.2540 14.32287731970466"}}, "geometry": {"type": "Point", "coordinates": [-140.41572421735947, -68.6542858880616]}}, {"type": "Feature", "properties": {"norad_id": 30803, "name": "FENGYUN 1C DEB", "group": "fengyun-1c-debris", "lat": -77.71132725597838, "lon": 57.73544174738493, "alt_km": 810.6239624235768, "timestamp": "2025-12-02T10:50:47.552851+00:00", "meta": {"OBJECT_NAME": "FENGYUN 1C DEB", "OBJECT_ID": "1999-025AUM", "EPOCH": "2025-12-02T01:20:02.456736", "MEAN_MOTION": 14.11162306, "ECCENTRICITY": 0.0107005, "INCLINATION": 99.2471, "RA_OF_ASC_NODE": 8.9196, "ARG_OF_PERICENTER": 231.0516, "MEAN_ANOMALY": 193.7274, "EPHEMERIS_TYPE": 0, "CLASSIFICATION_TYPE": "U", "NORAD_CAT_ID": 30803, "ELEMENT_SET_NO": 999, "REV_AT_EPOCH": 95848, "BSTAR": 0.0014726, "MEAN_MOTION_DOT": 2.753e-05, "MEAN_MOTION_DDOT": 0}, "tle": {"line1": "1 30803U 99025AUM 25336.05558399  .00002753  00000+0  14726-2 0  9990", "line2": "2 30803  99.2471   8.9196 0107005 231.0516 193.7274 14.11162306958484"}}, "geometry": {"type": "Point", "coordinates": [57.73544174738493, -77.71132725597838]}}, {"type": "Feature", "properties": {"norad_id": 30804, "name": "FENGYUN 1C DEB", "group": "fengyun-1c-debris", "lat": 39.05620487507064, "lon": -131.46784678435242, "alt_km": 686.1547809631766, "timestamp": "2025-12-02T10:50:47.552862+00:00", "meta": {"OBJECT_NAME": "FENGYUN 1C DEB", "OBJECT_ID": "1999-025AUN", "EPOCH": "2025-12-02T03:50:59.931168", "MEAN_MOTION": 14.54514306, "ECCENTRICITY": 0.0185259, "INCLINATION": 98.8967, "RA_OF_ASC_NODE": 40.9201, "ARG_OF_PERICENTER": 222.67, "MEAN_ANOMALY": 194.1064, "EPHEMERIS_TYPE": 0, "CLASSIFICATION_TYPE": "U", "NORAD_CAT_ID": 30804, "ELEMENT_SET_NO": 999, "REV_AT_EPOCH": 99323, "BSTAR": 0.00059504, "MEAN_MOTION_DOT": 3.128e-05, "MEAN_MOTION_DDOT": 0}, "tle": {"line1": "1 30804U 99025AUN 25336.16041587  .00003128  00000+0  59504-3 0  9990", "line2": "2 30804  98.8967  40.9201 0185259 222.6700 194.1064 14.54514306993233"}}, "geometry": {"type": "Point", "coordinates": [-131.46784678435242, 39.05620487507064]}}, {"type": "Feature", "properties": {"norad_id": 30805, "name": "FENGYUN 1C DEB", "group": "fengyun-1c-debris", "lat": 43.36907488391031, "lon": 10.994832263657736, "alt_km": 880.4118955219674, "timestamp": "2025-12-02T10:50:47.552872+00:00", "meta": {"OBJECT_NAME": "FENGYUN 1C DEB", "OBJECT_ID": "1999-025AUP", "EPOCH": "2025-12-02T02:13:08.804064", "MEAN_MOTION": 14.02856856, "ECCENTRICITY": 0.0069145, "INCLINATION": 98.8215, "RA_OF_ASC_NODE": 19.0818, "ARG_OF_PERICENTER": 314.5092, "MEAN_ANOMALY": 74.3432, "EPHEMERIS_TYPE": 0, "CLASSIFICATION_TYPE": "U", "NORAD_CAT_ID": 30805, "ELEMENT_SET_NO": 999, "REV_AT_EPOCH": 95811, "BSTAR": 0.00063594, "MEAN_MOTION_DOT": 9.63e-06, "MEAN_MOTION_DDOT": 0}, "tle": {"line1": "1 30805U 99025AUP 25336.09246301  .00000963  00000+0  63594-3 0  9992", "line2": "2 30805  98.8215  19.0818 0069145 314.5092  74.3432 14.02856856958119"}}, "geometry": {"type": "Point", "coordinates": [10.994832263657736, 43.36907488391031]}}, {"type": "Feature", "properties": {"norad_id": 30806, "name": "FENGYUN 1C DEB", "group": "fengyun-1c-debris", "lat": -0.05219658720576381, "lon": -176.41332388892457, "alt_km": 817.1721827559177, "timestamp": "2025-12-02T10:50:47.552882+00:00", "meta": {"OBJECT_NAME": "FENGYUN 1C DEB", "OBJECT_ID": "1999-025AUQ", "EPOCH": "2025-12-01T20:47:52.740960", "MEAN_MOTION": 13.70389615, "ECCENTRICITY": 0.0268842, "INCLINATION": 99.0377, "RA_OF_ASC_NODE": 3.0442, "ARG_OF_PERICENTER": 158.8429, "MEAN_ANOMALY": 13.6674, "EPHEMERIS_TYPE": 0, "CLASSIFICATION_TYPE": "U", "NORAD_CAT_ID": 30806, "ELEMENT_SET_NO": 999, "REV_AT_EPOCH": 93546, "BSTAR": 0.0008388, "MEAN_MOTION_DOT": 9.18e-06, "MEAN_MOTION_DDOT": 0}, "tle": {"line1": "1 30806U 99025AUQ 25335.86658265  .00000918  00000+0  83880-3 0  9993", "line2": "2 30806  99.0377   3.0442 0268842 158.8429  13.6674 13.70389615935461"}}, "geometry": {"type": "Point", "coordinates": [-176.41332388892457, -0.05219658720576381]}}, {"type": "Feature", "properties": {"norad_id": 30809, "name": "FENGYUN 1C DEB", "group": "fengyun-1c-debris", "lat": -22.8719359729017, "lon": 69.15043889997003, "alt_km": 827.242307279972, "timestamp": "2025-12-02T10:50:47.552892+00:00", "meta": {"OBJECT_NAME": "FENGYUN 1C DEB", "OBJECT_ID": "1999-025AUT", "EPOCH": "2025-11-30T18:37:33.532320", "MEAN_MOTION": 14.29039224, "ECCENTRICITY": 0.00523925, "INCLINATION": 98.7899, "RA_OF_ASC_NODE": 63.719, "ARG_OF_PERICENTER": 205.7353, "MEAN_ANOMALY": 154.122, "EPHEMERIS_TYPE": 0, "CLASSIFICATION_TYPE": "U", "NORAD_CAT_ID": 30809, "ELEMENT_SET_NO": 999, "REV_AT_EPOCH": 96916, "BSTAR": 0.0020053626, "MEAN_MOTION_DOT": 5.11e-05, "MEAN_MOTION_DDOT": 0}, "tle": {"line1": "1 30809U 99025AUT 25334.77608255  .00005110  00000+0  20054-2 0  9991", "line2": "2 30809  98.7899  63.7190 0052392 205.7353 154.1220 14.29039224969166"}}, "geometry": {"type": "Point", "coordinates": [69.15043889997003, -22.8719359729017]}}]}